OBJECT_NAME,OBJECT_ID,EPOCH,MEAN_MOTION,ECCENTRICITY,INCLINATION,RA_OF_ASC_NODE,ARG_OF_PERICENTER,MEAN_ANOMALY,EPHEMERIS_TYPE,CLASSIFICATION_TYPE,NORAD_CAT_ID,ELEMENT_SET_NO,REV_AT_EPOCH,BSTAR,MEAN_MOTION_DOT,MEAN_MOTION_DDOT
WORLDVIEW-3 (WV-3),2014-048A,2026-07-20T20:33:59.737824,14.85069569,.0001708,97.8552,276.2233,147.6156,212.5164,0,U,40115,999,64690,.61868E-4,.475E-5,0
GAOFEN-2,2014-049A,2026-07-20T19:47:29.816160,14.80932811,.0008585,98.0088,265.9971,118.8720,241.3355,0,U,40118,999,64421,.82805E-4,.587E-5,0
YAOGAN-21,2014-053A,2026-07-20T20:29:18.948192,15.26802401,.0007022,97.1457,240.6508,347.7112,12.3955,0,U,40143,999,66009,.14709E-3,.3807E-4,0
YAOGAN-22,2014-063A,2026-07-20T10:04:47.032320,13.15531717,.00069024,100.7769,353.2512,114.4075,245.7757,0,U,40275,999,56418,.6411426E-5,-.44E-6,0
ASNARO,2014-070A,2026-07-20T19:23:22.261920,15.19425847,.000461,97.3434,277.0166,75.0471,285.1274,0,U,40298,999,64911,.22284E-3,.4655E-4,0
YAOGAN-24,2014-072A,2026-07-20T20:08:22.960032,14.76123894,.0015044,98.1536,339.4651,152.0133,208.1888,0,U,40310,999,62868,.10305E-3,.659E-5,0
CBERS 4,2014-079A,2026-07-20T20:13:16.593024,14.35516431,.0000596,98.3509,257.6151,68.6337,291.4913,0,U,40336,999,60878,-.16915E-4,-.91E-6,0
YAOGAN-26,2014-088A,2026-07-20T21:01:59.424672,15.48590595,.0001053,97.0661,201.3282,292.0638,68.0501,0,U,40362,999,64291,.23047E-3,.12209E-3,0
SMAP,2015-003A,2026-07-20T20:34:46.824096,14.63392063,.0001632,98.1286,208.4767,92.8704,267.2685,0,U,40376,999,61254,.5434E-4,.234E-5,0
KOMPSAT-3A,2015-014A,2026-07-20T21:36:55.240704,15.55668439,.0055445,97.6903,195.7731,55.4592,305.1877,0,U,40536,999,62705,.36503E-3,.26812E-3,0
SENTINEL-2A,2015-028A,2026-07-20T20:25:32.602656,14.30814564,.0001318,98.5668,276.2228,95.5973,264.5360,0,U,40697,999,57854,-.55617E-4,-.189E-5,0
GAOFEN-8,2015-030A,2026-07-20T20:41:31.055136,15.47087683,.0009778,97.6902,37.2817,78.1337,282.1008,0,U,40701,999,61665,.36041E-3,.18202E-3,0
CARBONITE 1 (CBNT-1),2015-032D,2026-07-20T20:05:00.066912,14.83674674,.0014359,97.6530,18.4987,178.1842,181.9428,0,U,40718,999,59433,.48114E-4,.347E-5,0
YAOGAN-27,2015-040A,2026-07-20T20:35:14.410752,13.16072617,.0008746,100.1180,186.7822,132.7491,227.4359,0,U,40878,999,52209,.85267E-3,.282E-5,0
GAOFEN-9 01,2015-047A,2026-07-20T20:50:08.953152,14.82941331,.0028056,97.6263,236.0309,32.5276,327.7659,0,U,40894,999,58518,.68856E-4,.511E-5,0
YAOGAN-28,2015-064A,2026-07-20T20:38:57.859296,15.27803023,.0011951,97.3115,339.4531,75.6245,284.6320,0,U,41026,999,59582,.16371E-3,.438E-4,0
YAOGAN-29,2015-069A,2026-07-20T20:15:29.165184,14.83109516,.0000161,98.0020,230.5283,27.8100,332.3122,0,U,41038,999,57561,.61684E-4,.449E-5,0
KENT RIDGE 1,2015-077B,2026-07-20T19:42:16.708608,15.23302681,.0008267,14.9808,15.8171,354.2128,5.8098,0,U,41167,999,58623,.71463E-4,.2508E-4,0
GAOFEN-4,2015-083A,2026-07-20T06:47:15.871776,1.00270897,.00041678,0.4407,83.8785,121.8602,299.8332,0,U,41194,999,3886,0,-.337E-5,0
JASON-3,2016-002A,2026-07-20T20:48:14.023008,12.87628870,.0008134,66.0416,55.0276,270.3471,89.6616,0,U,41240,999,49158,.77363E-5,-.6E-6,0
SENTINEL-3A,2016-011A,2026-07-20T19:24:36.254016,14.26740716,.0001312,98.6232,268.7066,88.8974,271.2357,0,U,41335,999,54285,.28646E-4,.26E-6,0
ZIYUAN 3-02 (ZY 3-02),2016-033A,2026-07-20T20:46:40.468224,15.21468177,.0014676,97.3819,276.9927,165.5461,194.6198,0,U,41556,999,56310,.15817E-3,.3496E-4,0
CARTOSAT-2C,2016-040A,2026-07-20T20:22:19.425216,15.19284109,.0008986,97.4458,261.3603,27.4296,332.7412,0,U,41599,999,55882,.4918E-4,.97E-5,0
SKYSAT-C1,2016-040C,2026-07-20T08:43:47.597376,15.36798698,.00006316,96.9554,231.2938,198.3803,161.7420,0,U,41601,999,56296,.14048123E-3,.4976E-4,0
LAPAN-A3,2016-040E,2026-07-20T20:49:45.811776,15.33299024,.0008343,97.1509,196.9145,251.1072,108.9267,0,U,41603,999,55997,.5945E-4,.1839E-4,0
GAOFEN-3,2016-049A,2026-07-20T20:54:16.852896,14.42218634,.0001781,98.4024,209.1493,84.2928,275.8464,0,U,41727,999,52350,-.75662E-5,-.68E-6,0
SKYSAT-C4,2016-058B,2026-07-20T20:34:51.532032,15.49556266,.0003557,96.9174,222.2407,110.3890,249.7744,0,U,41771,999,55068,.22685E-3,.12435E-3,0
SKYSAT-C5,2016-058C,2026-07-20T16:35:59.881056,15.33763083,.000314,97.0451,240.8232,147.2624,212.8814,0,U,41772,999,54888,.13427E-3,.431E-4,0
SKYSAT-C2,2016-058D,2026-07-20T00:30:42.511104,15.42746945,.00008112,97.0163,221.8941,320.8207,39.2982,0,U,41773,999,55011,.16309524E-3,.7045E-4,0
SKYSAT-C3,2016-058E,2026-07-20T01:32:43.850688,15.53846132,.00027191,96.8998,230.6733,127.1966,232.9537,0,U,41774,999,55121,.22690805E-3,.14503E-3,0
ALSAT-1B,2016-059C,2026-07-20T21:09:46.083168,14.72296843,.0010658,97.7761,209.1925,113.7659,246.4668,0,U,41785,999,52553,.40436E-4,.209E-5,0
PATHFINDER 1,2016-059E,2026-07-20T21:12:27.290016,14.67697467,.002996,97.8180,199.6413,98.4645,261.9958,0,U,41787,999,52465,.74362E-4,.379E-5,0
SCATSAT 1,2016-059H,2026-07-20T18:10:19.373088,14.79595605,.0055582,98.1173,265.8671,138.9504,221.5910,0,U,41790,999,10655,.98579E-4,.701E-5,0
GOKTURK 1A,2016-073A,2026-07-20T19:57:50.669280,14.62795432,.0001435,98.1201,95.9718,81.3565,278.7800,0,U,41875,999,51374,.31742E-4,.115E-5,0
RESOURCESAT-2A,2016-074A,2026-07-20T20:30:16.677216,14.21608236,.0002079,98.7511,275.0814,15.3290,344.7950,0,U,41877,999,49908,-.11285E-3,-.292E-5,0
CARTOSAT-2D,2017-008A,2026-07-20T19:33:07.464672,15.19307820,.0006432,97.4086,260.4888,123.1846,237.0006,0,U,41948,999,52268,.8599E-4,.1748E-4,0
SENTINEL-2B,2017-013A,2026-07-20T20:15:11.200896,14.30815245,.0001239,98.5676,276.1415,93.5981,266.5344,0,U,42063,999,48945,-.58723E-4,-.198E-5,0
CARTOSAT-2E,2017-036C,2026-07-20T19:58:51.996864,15.19278322,.0003912,97.4252,261.0768,169.7136,190.4179,0,U,42767,999,50325,.11161E-3,.2287E-4,0
FORMOSAT-5,2017-049A,2026-07-20T20:16:28.454592,14.50908774,.0010939,98.2242,276.4050,346.1966,13.8928,0,U,42920,999,47155,.2022E-4,.36E-6,0
SENTINEL-5P,2017-064A,2026-07-20T19:46:02.517600,14.19523916,.0001182,98.7929,143.7171,92.5876,267.5435,0,U,42969,999,45433,.30746E-4,.21E-6,0
SKYSAT-C11,2017-068A,2026-07-20T09:00:23.505120,15.59510332,.0001469,97.4390,351.7002,152.3374,207.7961,0,U,42987,999,48841,.23298E-3,.18375E-3,0
SKYSAT-C10,2017-068B,2026-07-20T20:47:18.695040,15.35187167,.0001558,97.4543,339.0626,110.5153,249.6258,0,U,42988,999,48752,.22224E-3,.7509E-4,0
SKYSAT-C9,2017-068C,2026-07-20T20:30:18.055296,15.42299465,.0008149,97.4466,340.3127,26.0120,334.1535,0,U,42989,999,48794,.21229E-3,.9061E-4,0
SKYSAT-C8,2017-068D,2026-07-20T20:25:10.568064,15.37559671,.0001307,97.4560,338.9767,107.0610,253.0777,0,U,42990,999,48748,.19879E-3,.7241E-4,0
SKYSAT-C7,2017-068E,2026-07-20T20:17:29.488416,15.37509000,.0005181,97.4572,339.9633,1.4295,358.6963,0,U,42991,999,48754,.19423E-3,.7064E-4,0
SKYSAT-C6,2017-068F,2026-07-20T20:49:03.468864,15.34229572,.0004935,97.4611,339.8134,74.4824,285.6963,0,U,42992,999,48748,.19041E-3,.6229E-4,0
CARTOSAT-2F,2018-004A,2026-07-20T20:46:08.675616,15.19195173,.0002793,97.4764,261.1673,124.4452,235.7047,0,U,43111,999,47244,.62666E-4,.125E-4,0
GAOFEN-1 02,2018-031A,2026-07-20T20:16:49.484352,14.76474505,.0001521,98.0504,264.2750,249.5924,110.5122,0,U,43259,999,44766,-.82255E-5,-.109E-5,0
GAOFEN-1 03,2018-031B,2026-07-20T21:22:55.477632,14.76467278,.0001955,98.0499,264.1751,358.0912,2.0290,0,U,43260,999,44766,.63017E-4,.387E-5,0
GAOFEN-1 04,2018-031D,2026-07-20T20:48:00.935136,14.76441342,.0000896,98.0506,264.3461,53.6081,306.5211,0,U,43262,999,44765,.3706E-4,.206E-5,0
SENTINEL-3B,2018-039A,2026-07-20T18:45:56.832192,14.26737354,.0001268,98.6231,268.8292,118.6255,241.5053,0,U,43437,999,42891,.32817E-4,.36E-6,0
GAOFEN-5 01,2018-043A,2026-07-20T20:01:40.526112,14.60625773,.0001761,98.4595,174.1323,19.4021,340.7246,0,U,43461,999,43660,.4971E-4,.193E-5,0
GAOFEN-6,2018-048A,2026-07-20T21:20:50.521632,14.76387992,.0012028,98.0948,264.6047,65.6531,294.5933,0,U,43484,999,43836,.71467E-4,.444E-5,0
GAOFEN-11 01,2018-063A,2026-07-20T21:02:46.171392,15.56176099,.0003808,97.1268,268.6786,178.2219,181.9050,0,U,43585,999,44558,.13989E-3,.9695E-4,0
ICESAT-2,2018-070A,2026-07-20T19:28:46.496928,15.28233917,.000496,92.0085,300.0661,46.0634,314.1024,0,U,43613,999,43759,.20067E-3,.5521E-4,0
HYSIS,2018-096A,2026-07-20T20:14:46.906080,14.78675934,.0001752,97.9819,268.3251,82.1916,277.9494,0,U,43719,999,41239,.55261E-4,.353E-5,0
KAZSTSAT,2018-099AB,2026-07-20T01:16:37.363008,14.99958351,.00071903,97.4309,231.5017,320.5226,39.5473,0,U,43783,999,41623,.6151122E-5,.21E-6,0
SAUDISAT 5A,2018-102A,2026-07-20T21:15:50.615136,15.28355657,.0009885,97.3045,262.8207,25.3089,334.8633,0,U,43831,999,42082,.12819E-3,.347E-4,0
SAUDISAT 5B,2018-102C,2026-07-20T20:00:49.677984,15.28595827,.0010658,97.3155,265.9003,26.8433,333.3356,0,U,43833,999,42093,.11445E-3,.3114E-4,0
GAOFEN-10R,2019-066A,2026-07-20T19:42:36.698976,14.83064229,.0006568,98.0512,155.6483,37.8039,322.3634,0,U,44622,999,36736,.77821E-4,.579E-5,0
CARTOSAT-3,2019-081A,2026-07-20T19:31:45.408864,15.19205652,.0012566,97.4282,263.1357,41.4441,318.7744,0,U,44804,999,36857,.81858E-4,.1658E-4,0
GAOFEN-12 01,2019-082A,2026-07-20T20:57:39.503232,14.80482229,.0000709,97.8112,207.3655,66.1116,294.0170,0,U,44819,999,35907,.34826E-4,.216E-5,0
CSG-1,2019-092A,2026-07-20T19:21:32.215104,14.82159345,.0001463,97.8900,24.9241,94.8478,265.2902,0,U,44873,999,35645,.27608E-4,.168E-5,0
NEMO-HD,2020-061F,2026-07-20T19:27:03.379392,15.45212421,.0001031,97.1896,263.4348,112.6106,247.5252,0,U,46277,999,32717,.15924E-3,.7474E-4,0
SENTINEL-6A,2020-086A,2026-07-20T21:25:00.055200,12.80930248,.0007785,66.0411,65.0469,269.6345,90.3778,0,U,46984,999,26464,-.61804E-5,-.62E-6,0
CAS500-1,2021-022A,2026-07-20T21:31:34.752000,15.20167957,.0005789,97.3852,96.4602,152.8904,207.2635,0,U,47932,999,29588,.16171E-3,.3433E-4,0
GAOFEN-12 02,2021-026A,2026-07-20T21:18:48.599136,14.80318682,.0006115,97.9939,199.9338,117.5081,242.6753,0,U,48079,999,28674,.33245E-4,.201E-5,0
